GOMX-1                  
1 39430U 13066Q   26178.53599405  .00002079  00000+0  31566-3 0  9990
2 39430  97.6484  18.3455 0129750  44.7085 316.4494 14.69495147671439
CUBEBUG-2 (LO-74)       
1 39440U 13066AA  26178.44573602  .00004522  00000+0  41800-3 0  9999
2 39440  97.8904 127.4676 0057370 355.1187   4.9465 14.93843373678525
NEE-02 KRYSAOR          
1 39441U 13066AB  26178.37252551  .00002935  00000+0  32355-3 0  9990
2 39441  97.8893 117.5146 0067070  37.4749 323.1115 14.86663245677715
FUNCUBE-1 (AO-73)       
1 39444U 13066AE  26178.46362471  .00006965  00000+0  43065-3 0  9993
2 39444  97.8272 150.1245 0036701 165.9827 194.2429 15.09608220681216
UWE-3                   
1 39446U 13066AG  26178.37512397  .00003939  00000+0  33924-3 0  9990
2 39446  97.8711 134.5185 0046852 286.5601  73.0477 14.97105465679104
SMDC ONE 2.4            
1 39469U 13072H   26178.47481086  .00011317  00000+0  42550-3 0  9997
2 39469 120.4934  31.8090 0146660  29.9221 331.0141 15.18381665119395
COSMOS 2488 (RODNIK-S 7)
1 39483U 13076A   26178.50227955  .00000028  00000+0  12999-3 0  9995
2 39483  82.4830 162.2681 0020885  74.0737 286.2642 12.42906025567178
COSMOS 2489 (RODNIK-S 8)
1 39484U 13076B   26178.47769825  .00000075  00000+0  47076-3 0  9995
2 39484  82.4866 163.6656 0022693  74.0425 286.3152 12.42879897567227
COSMOS 2490 (RODNIK-S 9)
1 39485U 13076C   26178.44960306  .00000108  00000+0  70530-3 0  9998
2 39485  82.4813 161.7461 0022877  88.8509 271.5191 12.42878949567151
KAZEOSAT 1              
1 39731U 14024A   26178.49875850  .00000394  00000+0  13300-3 0  9999
2 39731  98.3208 250.6899 0001245  75.1936 284.9392 14.42084594640049
COSMOS 2496 (RODNIK-S *)
1 39761U 14028A   26178.48760707 -.00000081  00000+0 -65575-3 0  9995
2 39761  82.4454 102.2802 0021316  57.6610 302.6529 12.42878571548793
COSMOS 2497 (RODNIK-S *)
1 39762U 14028B   26178.54325341 -.00000092  00000+0 -73368-3 0  9995
2 39762  82.4502 103.9390 0021837  52.7598 307.5469 12.42894315548800
COSMOS 2498 (RODNIK-S *)
1 39763U 14028C   26178.52013865 -.00000010  00000+0 -14166-3 0  9990
2 39763  82.4462 102.4362 0022548  52.4287 307.8836 12.42980429548837
HODOYOSHI-4             
1 40011U 14033B   26178.52345605  .00001265  00000+0  14246-3 0  9994
2 40011  97.5451   2.8469 0022078 271.8268  88.0421 14.88148873650344
UNISAT-6                
1 40012U 14033C   26178.41999545  .00002722  00000+0  29484-3 0  9990
2 40012  97.7883 330.9523 0045636  36.3375 324.0925 14.88293600647684
DEIMOS-2                
1 40013U 14033D   26178.49926436  .00000820  00000+0  82526-4 0  9992
2 40013  97.5826  52.6256 0001145  53.7590 306.3736 14.93751172639267
BUGSAT-1 (TITA)         
1 40014U 14033E   26178.53348447  .00007245  00000+0  38036-3 0  9992
2 40014  98.0432 271.6874 0028764 143.7423 216.5765 15.15700431657404
SAUDISAT 4              
1 40016U 14033G   26178.39849875  .00000606  00000+0  86370-4 0  9998
2 40016  97.7593 324.1804 0045688  41.6411 318.8265 14.79556943647589
APRIZESAT 9             
1 40018U 14033J   26178.32084433  .00000770  00000+0  12014-3 0  9999
2 40018  97.9071 311.2723 0066488 166.5710 193.7288 14.74228562645054
BRITE-CA1 (TORONTO)     
1 40020U 14033L   26178.36533176  .00000868  00000+0  13812-3 0  9994
2 40020  97.9749 307.1062 0077363 243.8589 115.4646 14.72691852643710
DUCHIFAT-1              
1 40021U 14033M   26178.12074074  .00123708  00000+0  11664-2 0  9997
2 40021  98.0447 238.6906 0001012 103.7667 256.3704 15.66663856657309
NANOSATC-BR1            
1 40024U 14033Q   26178.07067232  .00017817  00000+0  58279-3 0  9999
2 40024  98.0720 211.3356 0005075 138.8301 221.3322 15.31766053655491
QB50P1                  
1 40025U 14033R   26178.29918808  .00008713  00000+0  42669-3 0  9999
2 40025  98.0962 190.1548 0008862 179.4885 180.6358 15.18409172654566
